{
  "norad_id": 64249,
  "name": "STARLINK-34256",
  "history": [
    {
      "epoch": "2026-03-28T17:32:19.512096",
      "apogee_km": 484.51013406893253,
      "perigee_km": 481.3315431934516,
      "latitude_deg": 42.963694388893444,
      "longitude_deg": -44.94498656014912,
      "semi_major_axis_km": 6861.057838631192,
      "eccentricity": 0.00023164,
      "inclination_deg": 43.0019,
      "raan_deg": 199.3141,
      "arg_perigee_deg": 266.4566,
      "mean_anomaly_deg": 93.602,
      "mean_motion_rev_day": 15.27622834
    }
  ]
}