{"fetched_at":"2026-03-30T09:12:31Z","count":15922,"tles":[{"name":"STARLINK-34256","line1":"1 64249U 25119S   26087.73078139  .00030110  00000+0  10978-2 0  9995","line2":"2 64249  43.0019 199.3141 0002316 266.4566  93.6020 15.27622834 47088","category":"Starlink"}]}